[{"OBJECT_NAME":"ONEWEB-0384","OBJECT_ID":"2021-090AH","EPOCH":"2026-03-02T16:46:26.675904","MEAN_MOTION":13.20806551,"ECCENTRICITY":0.00011372,"INCLINATION":87.9189,"RA_OF_ASC_NODE":295.739,"ARG_OF_PERICENTER":71.487,"MEAN_ANOMALY":288.6386,"EPHEMERIS_TYPE":0,"CLASSIFICATION_TYPE":"U","NORAD_CAT_ID":49310,"ELEMENT_SET_NO":999,"REV_AT_EPOCH":21577,"BSTAR":9.465718e-5,"MEAN_MOTION_DOT":5.1e-7,"MEAN_MOTION_DDOT":0},{"OBJECT_NAME":"ONEWEB-0385","OBJECT_ID":"2021-090AJ","EPOCH":"2026-03-02T16:47:18.107232","MEAN_MOTION":13.20770991,"ECCENTRICITY":0.00014783,"INCLINATION":87.9184,"RA_OF_ASC_NODE":295.7008,"ARG_OF_PERICENTER":77.4648,"MEAN_ANOMALY":282.6651,"EPHEMERIS_TYPE":0,"CLASSIFICATION_TYPE":"U","NORAD_CAT_ID":49311,"ELEMENT_SET_NO":999,"REV_AT_EPOCH":21574,"BSTAR":-3.9173415e-5,"MEAN_MOTION_DOT":-3.0e-8,"MEAN_MOTION_DDOT":0},{"OBJECT_NAME":"ONEWEB-0386","OBJECT_ID":"2021-090AK","EPOCH":"2026-03-02T17:12:16.652160","MEAN_MOTION":13.20769216,"ECCENTRICITY":0.00013608,"INCLINATION":87.9187,"RA_OF_ASC_NODE":295.6819,"ARG_OF_PERICENTER":79.267,"MEAN_ANOMALY":280.8617,"EPHEMERIS_TYPE":0,"CLASSIFICATION_TYPE":"U","NORAD_CAT_ID":49312,"ELEMENT_SET_NO":999,"REV_AT_EPOCH":21576,"BSTAR":-0.00011724991,"MEAN_MOTION_DOT":-3.5e-7,"MEAN_MOTION_DDOT":0},{"OBJECT_NAME":"ONEWEB-0387","OBJECT_ID":"2021-090AL","EPOCH":"2026-03-02T16:49:33.424320","MEAN_MOTION":13.20772329,"ECCENTRICITY":0.00016958,"INCLINATION":87.9174,"RA_OF_ASC_NODE":295.7232,"ARG_OF_PERICENTER":72.5166,"MEAN_ANOMALY":287.6153,"EPHEMERIS_TYPE":0,"CLASSIFICATION_TYPE":"U","NORAD_CAT_ID":49313,"ELEMENT_SET_NO":999,"REV_AT_EPOCH":21576,"BSTAR":-0.00013484491,"MEAN_MOTION_DOT":-4.2e-7,"MEAN_MOTION_DDOT":0},{"OBJECT_NAME":"ONEWEB-0388","OBJECT_ID":"2021-090AM","EPOCH":"2026-03-02T19:25:33.896640","MEAN_MOTION":13.19726154,"ECCENTRICITY":0.00015816,"INCLINATION":87.9237,"RA_OF_ASC_NODE":326.162,"ARG_OF_PERICENTER":76.3608,"MEAN_ANOMALY":283.7701,"EPHEMERIS_TYPE":0,"CLASSIFICATION_TYPE":"U","NORAD_CAT_ID":49314,"ELEMENT_SET_NO":999,"REV_AT_EPOCH":21238,"BSTAR":-0.00016558591,"MEAN_MOTION_DOT":-5.3e-7,"MEAN_MOTION_DDOT":0},{"OBJECT_NAME":"ONEWEB-0389","OBJECT_ID":"2021-132A","EPOCH":"2026-03-02T23:08:11.888736","MEAN_MOTION":13.17648378,"ECCENTRICITY":0.00018029,"INCLINATION":87.9138,"RA_OF_ASC_NODE":26.9634,"ARG_OF_PERICENTER":70.7022,"MEAN_ANOMALY":289.4304,"EPHEMERIS_TYPE":0,"CLASSIFICATION_TYPE":"U","NORAD_CAT_ID":50469,"ELEMENT_SET_NO":999,"REV_AT_EPOCH":20409,"BSTAR":-3.42182e-6,"MEAN_MOTION_DOT":1.2e-7,"MEAN_MOTION_DDOT":0},{"OBJECT_NAME":"ONEWEB-0390","OBJECT_ID":"2021-132B","EPOCH":"2026-03-02T21:21:14.749056","MEAN_MOTION":13.17651296,"ECCENTRICITY":0.00021382,"INCLINATION":87.9138,"RA_OF_ASC_NODE":26.9784,"ARG_OF_PERICENTER":82.0437,"MEAN_ANOMALY":278.0937,"EPHEMERIS_TYPE":0,"CLASSIFICATION_TYPE":"U","NORAD_CAT_ID":50470,"ELEMENT_SET_NO":999,"REV_AT_EPOCH":20408,"BSTAR":8.1400742e-5,"MEAN_MOTION_DOT":4.4e-7,"MEAN_MOTION_DDOT":0},{"OBJECT_NAME":"ONEWEB-0391","OBJECT_ID":"2021-132C","EPOCH":"2026-03-02T21:23:42.834336","MEAN_MOTION":13.17649118,"ECCENTRICITY":0.00022442,"INCLINATION":87.9136,"RA_OF_ASC_NODE":26.9873,"ARG_OF_PERICENTER":60.2711,"MEAN_ANOMALY":299.8644,"EPHEMERIS_TYPE":0,"CLASSIFICATION_TYPE":"U","NORAD_CAT_ID":50471,"ELEMENT_SET_NO":999,"REV_AT_EPOCH":20408,"BSTAR":0.00011394917,"MEAN_MOTION_DOT":5.7e-7,"MEAN_MOTION_DDOT":0},{"OBJECT_NAME":"ONEWEB-0392","OBJECT_ID":"2021-132D","EPOCH":"2026-03-02T22:07:26.869728","MEAN_MOTION":13.17648216,"ECCENTRICITY":0.00018966,"INCLINATION":87.9149,"RA_OF_ASC_NODE":26.9406,"ARG_OF_PERICENTER":70.2482,"MEAN_ANOMALY":289.8854,"EPHEMERIS_TYPE":0,"CLASSIFICATION_TYPE":"U","NORAD_CAT_ID":50472,"ELEMENT_SET_NO":999,"REV_AT_EPOCH":20412,"BSTAR":-3.007841e-5,"MEAN_MOTION_DOT":1.0e-8,"MEAN_MOTION_DDOT":0},{"OBJECT_NAME":"ONEWEB-0393","OBJECT_ID":"2021-132E","EPOCH":"2026-03-02T21:28:45.365664","MEAN_MOTION":13.17650161,"ECCENTRICITY":0.00018642,"INCLINATION":87.9149,"RA_OF_ASC_NODE":26.9694,"ARG_OF_PERICENTER":75.2246,"MEAN_ANOMALY":284.9092,"EPHEMERIS_TYPE":0,"CLASSIFICATION_TYPE":"U","NORAD_CAT_ID":50473,"ELEMENT_SET_NO":999,"REV_AT_EPOCH":20411,"BSTAR":-7.0656461e-5,"MEAN_MOTION_DOT":-1.5e-7,"MEAN_MOTION_DDOT":0},{"OBJECT_NAME":"ONEWEB-0394","OBJECT_ID":"2021-132F","EPOCH":"2026-03-02T20:53:53.433312","MEAN_MOTION":13.186857,"ECCENTRICITY":0.0001734,"INCLINATION":87.9247,"RA_OF_ASC_NODE":356.552,"ARG_OF_PERICENTER":73.8748,"MEAN_ANOMALY":286.2575,"EPHEMERIS_TYPE":0,"CLASSIFICATION_TYPE":"U","NORAD_CAT_ID":50474,"ELEMENT_SET_NO":999,"REV_AT_EPOCH":20758,"BSTAR":-7.248369e-6,"MEAN_MOTION_DOT":1.0e-7,"MEAN_MOTION_DDOT":0},{"OBJECT_NAME":"ONEWEB-0395","OBJECT_ID":"2021-132G","EPOCH":"2026-03-02T23:05:10.663872","MEAN_MOTION":13.11416851,"ECCENTRICITY":0.00020874,"INCLINATION":87.8847,"RA_OF_ASC_NODE":42.1952,"ARG_OF_PERICENTER":81.2583,"MEAN_ANOMALY":278.8781,"EPHEMERIS_TYPE":0,"CLASSIFICATION_TYPE":"U","NORAD_CAT_ID":50475,"ELEMENT_SET_NO":999,"REV_AT_EPOCH":20179,"BSTAR":-0.0012098927,"MEAN_MOTION_DOT":-4.16e-6,"MEAN_MOTION_DDOT":0},{"OBJECT_NAME":"ONEWEB-0396","OBJECT_ID":"2021-132H","EPOCH":"2026-03-02T20:44:23.385120","MEAN_MOTION":13.18685601,"ECCENTRICITY":0.00017728,"INCLINATION":87.925,"RA_OF_ASC_NODE":356.565,"ARG_OF_PERICENTER":75.1033,"MEAN_ANOMALY":285.0295,"EPHEMERIS_TYPE":0,"CLASSIFICATION_TYPE":"U","NORAD_CAT_ID":50476,"ELEMENT_SET_NO":999,"REV_AT_EPOCH":20762,"BSTAR":4.7979985e-5,"MEAN_MOTION_DOT":3.2e-7,"MEAN_MOTION_DDOT":0},{"OBJECT_NAME":"ONEWEB-0397","OBJECT_ID":"2021-132J","EPOCH":"2026-03-02T21:05:45.842784","MEAN_MOTION":13.18685054,"ECCENTRICITY":0.00016128,"INCLINATION":87.9248,"RA_OF_ASC_NODE":356.5623,"ARG_OF_PERICENTER":75.998,"MEAN_ANOMALY":284.1332,"EPHEMERIS_TYPE":0,"CLASSIFICATION_TYPE":"U","NORAD_CAT_ID":50477,"ELEMENT_SET_NO":999,"REV_AT_EPOCH":20760,"BSTAR":3.1769633e-5,"MEAN_MOTION_DOT":2.5e-7,"MEAN_MOTION_DDOT":0},{"OBJECT_NAME":"ONEWEB-0398","OBJECT_ID":"2021-132K","EPOCH":"2026-03-02T22:18:49.176576","MEAN_MOTION":13.11415916,"ECCENTRICITY":0.00022351,"INCLINATION":87.8858,"RA_OF_ASC_NODE":42.1814,"ARG_OF_PERICENTER":82.7675,"MEAN_ANOMALY":277.3707,"EPHEMERIS_TYPE":0,"CLASSIFICATION_TYPE":"U","NORAD_CAT_ID":50478,"ELEMENT_SET_NO":999,"REV_AT_EPOCH":20168,"BSTAR":0.0015475144,"MEAN_MOTION_DOT":5.61e-6,"MEAN_MOTION_DDOT":0},{"OBJECT_NAME":"ONEWEB-0399","OBJECT_ID":"2021-132L","EPOCH":"2026-03-02T21:59:16.783872","MEAN_MOTION":13.11417684,"ECCENTRICITY":0.00015839,"INCLINATION":87.8855,"RA_OF_ASC_NODE":42.1939,"ARG_OF_PERICENTER":69.0621,"MEAN_ANOMALY":291.0676,"EPHEMERIS_TYPE":0,"CLASSIFICATION_TYPE":"U","NORAD_CAT_ID":50479,"ELEMENT_SET_NO":999,"REV_AT_EPOCH":20167,"BSTAR":0.00059976942,"MEAN_MOTION_DOT":2.25e-6,"MEAN_MOTION_DDOT":0},{"OBJECT_NAME":"ONEWEB-0400","OBJECT_ID":"2021-132M","EPOCH":"2026-03-02T20:34:53.476032","MEAN_MOTION":13.18685946,"ECCENTRICITY":0.00020054,"INCLINATION":87.9249,"RA_OF_ASC_NODE":356.5564,"ARG_OF_PERICENTER":79.8983,"MEAN_ANOMALY":280.2376,"EPHEMERIS_TYPE":0,"CLASSIFICATION_TYPE":"U","NORAD_CAT_ID":50480,"ELEMENT_SET_NO":999,"REV_AT_EPOCH":20759,"BSTAR":0.00010630325,"MEAN_MOTION_DOT":5.5e-7,"MEAN_MOTION_DDOT":0}]
