ONEWEB-0384             
1 49310U 21090AH  26061.69891986  .00000051  00000+0  94657-4 0  9990
2 49310  87.9189 295.7390 0001137  71.4870 288.6386 13.20806551215779
ONEWEB-0385             
1 49311U 21090AJ  26061.69951513 -.00000003  00000+0 -39173-4 0  9995
2 49311  87.9184 295.7008 0001478  77.4648 282.6651 13.20770991215742
ONEWEB-0386             
1 49312U 21090AK  26061.71685940 -.00000035  00000+0 -11725-3 0  9994
2 49312  87.9187 295.6819 0001360  79.2670 280.8617 13.20769216215762
ONEWEB-0387             
1 49313U 21090AL  26061.70108130 -.00000042  00000+0 -13484-3 0  9997
2 49313  87.9174 295.7232 0001695  72.5166 287.6153 13.20772329215765
ONEWEB-0388             
1 49314U 21090AM  26061.80942010 -.00000053  00000+0 -16559-3 0  9990
2 49314  87.9237 326.1620 0001581  76.3608 283.7701 13.19726154212387
ONEWEB-0389             
1 50469U 21132A   26061.96402649  .00000012  00000+0 -34218-5 0  9994
2 50469  87.9138  26.9634 0001802  70.7022 289.4304 13.17648378204094
ONEWEB-0390             
1 50470U 21132B   26061.88975404  .00000044  00000+0  81401-4 0  9990
2 50470  87.9138  26.9784 0002138  82.0437 278.0937 13.17651296204089
ONEWEB-0391             
1 50471U 21132C   26061.89146799  .00000057  00000+0  11395-3 0  9997
2 50471  87.9136  26.9873 0002244  60.2711 299.8644 13.17649118204084
ONEWEB-0392             
1 50472U 21132D   26061.92183877  .00000001  00000+0 -30078-4 0  9990
2 50472  87.9149  26.9406 0001896  70.2482 289.8854 13.17648216204124
ONEWEB-0393             
1 50473U 21132E   26061.89496951 -.00000015  00000+0 -70656-4 0  9999
2 50473  87.9149  26.9694 0001864  75.2246 284.9092 13.17650161204113
ONEWEB-0394             
1 50474U 21132F   26061.87075733  .00000010  00000+0 -72484-5 0  9995
2 50474  87.9247 356.5520 0001734  73.8748 286.2575 13.18685700207583
ONEWEB-0395             
1 50475U 21132G   26061.96192898 -.00000416  00000+0 -12099-2 0  9992
2 50475  87.8847  42.1952 0002087  81.2583 278.8781 13.11416851201793
ONEWEB-0396             
1 50476U 21132H   26061.86415955  .00000032  00000+0  47980-4 0  9995
2 50476  87.9250 356.5650 0001772  75.1033 285.0295 13.18685601207628
ONEWEB-0397             
1 50477U 21132J   26061.87900281  .00000025  00000+0  31770-4 0  9990
2 50477  87.9248 356.5623 0001612  75.9980 284.1332 13.18685054207600
ONEWEB-0398             
1 50478U 21132K   26061.92973584  .00000561  00000+0  15475-2 0  9990
2 50478  87.8858  42.1814 0002235  82.7675 277.3707 13.11415916201689
ONEWEB-0399             
1 50479U 21132L   26061.91616648  .00000225  00000+0  59977-3 0  9998
2 50479  87.8855  42.1939 0001583  69.0621 291.0676 13.11417684201670
ONEWEB-0400             
1 50480U 21132M   26061.85756338  .00000055  00000+0  10630-3 0  9998
2 50480  87.9249 356.5564 0002005  79.8983 280.2376 13.18685946207595
